start=new Date('2023-01-04T00:00:00.000Z').valueOf();
sats=[{"NORAD_CAT_ID":"50839","SITE":"AFETR","SEMIMAJOR_AXIS":"6917.874","TIME_SYSTEM":"UTC","TLE_LINE1":"1 50839U 22001AN  23003.69366774  .00005121  00000-0  33958-3 0  9996","BSTAR":"0.00033958000000","MEAN_ELEMENT_THEORY":"SGP4","DECAY_DATE":null,"INCLINATION":"53.2160","OBJECT_ID":"2022-001AN","OBJECT_TYPE":"PAYLOAD","MEAN_MOTION":"15.08842190","GP_ID":"222089757","REV_AT_EPOCH":"5626","PERIAPSIS":"537.921","MEAN_ANOMALY":"327.2788","EPOCH":"2023-01-03T16:38:52.892736","RA_OF_ASC_NODE":"351.0450","REF_FRAME":"TEME","ELEMENT_SET_NO":"999","CLASSIFICATION_TYPE":"U","LAUNCH_DATE":"2022-01-06","TLE_LINE2":"2 50839  53.2160 351.0450 0002627  32.8366 327.2788 15.08842190 56261","PERIOD":"95.437","APOAPSIS":"541.556","OBJECT_NAME":"STARLINK-3320","MEAN_MOTION_DOT":"0.00005121","EPHEMERIS_TYPE":"0","ECCENTRICITY":"0.00026270","COUNTRY_CODE":"US","FILE":"3730912","CENTER_NAME":"EARTH","MEAN_MOTION_DDOT":"0.0000000000000","ARG_OF_PERICENTER":"32.8366","RCS_SIZE":"LARGE"},{"REV_AT_EPOCH":"5491","GP_ID":"222114167","PERIAPSIS":"537.787","MEAN_MOTION":"15.08839005","MEAN_ANOMALY":"328.4527","INCLINATION":"53.2181","DECAY_DATE":null,"OBJECT_TYPE":"PAYLOAD","OBJECT_ID":"2022-001AP","TLE_LINE1":"1 50840U 22001AP  23003.22630090  .00002686  00000-0  18680-3 0  9990","TIME_SYSTEM":"UTC","MEAN_ELEMENT_THEORY":"SGP4","BSTAR":"0.00018680000000","SITE":"AFETR","NORAD_CAT_ID":"50840","SEMIMAJOR_AXIS":"6917.883","ARG_OF_PERICENTER":"31.6635","MEAN_MOTION_DDOT":"0.0000000000000","FILE":"3730926","CENTER_NAME":"EARTH","RCS_SIZE":"LARGE","EPHEMERIS_TYPE":"0","MEAN_MOTION_DOT":"0.00002686","OBJECT_NAME":"STARLINK-3295","APOAPSIS":"541.710","COUNTRY_CODE":"US","ECCENTRICITY":"0.00028350","CLASSIFICATION_TYPE":"U","LAUNCH_DATE":"2022-01-06","PERIOD":"95.438","TLE_LINE2":"2 50840  53.2181 353.1302 0002835  31.6635 328.4527 15.08839005 54917","EPOCH":"2023-01-03T05:25:52.397760","RA_OF_ASC_NODE":"353.1302","ELEMENT_SET_NO":"999","REF_FRAME":"TEME"},{"SEMIMAJOR_AXIS":"6917.903","NORAD_CAT_ID":"50841","SITE":"AFETR","MEAN_ELEMENT_THEORY":"SGP4","BSTAR":"0.00015422000000","TIME_SYSTEM":"UTC","TLE_LINE1":"1 50841U 22001AQ  23003.36981876  .00002166  00000-0  15422-3 0  9991","OBJECT_TYPE":"PAYLOAD","OBJECT_ID":"2022-001AQ","INCLINATION":"53.2179","DECAY_DATE":null,"MEAN_ANOMALY":"335.9106","GP_ID":"222112938","PERIAPSIS":"537.761","REV_AT_EPOCH":"5494","MEAN_MOTION":"15.08832452","REF_FRAME":"TEME","ELEMENT_SET_NO":"999","EPOCH":"2023-01-03T08:52:32.340864","RA_OF_ASC_NODE":"352.5046","PERIOD":"95.438","TLE_LINE2":"2 50841  53.2179 352.5046 0002902  24.2022 335.9106 15.08832452 54944","CLASSIFICATION_TYPE":"U","LAUNCH_DATE":"2022-01-06","COUNTRY_CODE":"US","ECCENTRICITY":"0.00029020","OBJECT_NAME":"STARLINK-3300","MEAN_MOTION_DOT":"0.00002166","EPHEMERIS_TYPE":"0","APOAPSIS":"541.776","RCS_SIZE":"LARGE","ARG_OF_PERICENTER":"24.2022","MEAN_MOTION_DDOT":"0.0000000000000","CENTER_NAME":"EARTH","FILE":"3730926"},{"RCS_SIZE":"LARGE","CENTER_NAME":"EARTH","FILE":"3730897","MEAN_MOTION_DDOT":"0.0000000000000","ARG_OF_PERICENTER":"24.2527","ECCENTRICITY":"0.00027460","COUNTRY_CODE":"US","APOAPSIS":"541.635","OBJECT_NAME":"STARLINK-3302","EPHEMERIS_TYPE":"0","MEAN_MOTION_DOT":"0.00002768","TLE_LINE2":"2 50842  53.2155 351.0726 0002746  24.2527 335.8594 15.08843446 56277","PERIOD":"95.437","CLASSIFICATION_TYPE":"U","LAUNCH_DATE":"2022-01-06","REF_FRAME":"TEME","ELEMENT_SET_NO":"999","RA_OF_ASC_NODE":"351.0726","EPOCH":"2023-01-03T16:28:16.572288","MEAN_ANOMALY":"335.8594","MEAN_MOTION":"15.08843446","GP_ID":"222089462","REV_AT_EPOCH":"5627","PERIAPSIS":"537.835","OBJECT_ID":"2022-001AR","OBJECT_TYPE":"PAYLOAD","INCLINATION":"53.2155","DECAY_DATE":null,"BSTAR":"0.00019197000000","MEAN_ELEMENT_THEORY":"SGP4","TIME_SYSTEM":"UTC","TLE_LINE1":"1 50842U 22001AR  23003.68630292  .00002768  00000-0  19197-3 0  9991","SEMIMAJOR_AXIS":"6917.870","NORAD_CAT_ID":"50842","SITE":"AFETR"},{"BSTAR":"0.00010718000000","MEAN_ELEMENT_THEORY":"SGP4","TIME_SYSTEM":"UTC","TLE_LINE1":"1 50843U 22001AS  23003.37717655  .00001418  00000-0  10718-3 0  9998","SEMIMAJOR_AXIS":"6917.895","NORAD_CAT_ID":"50843","SITE":"AFETR","MEAN_ANOMALY":"329.7678","MEAN_MOTION":"15.08835369","GP_ID":"222114438","REV_AT_EPOCH":"5494","PERIAPSIS":"538.013","OBJECT_ID":"2022-001AS","OBJECT_TYPE":"PAYLOAD","DECAY_DATE":null,"INCLINATION":"53.2174","TLE_LINE2":"2 50843  53.2174 352.4673 0002525  30.3460 329.7678 15.08835369 54946","PERIOD":"95.438","CLASSIFICATION_TYPE":"U","LAUNCH_DATE":"2022-01-06","REF_FRAME":"TEME","ELEMENT_SET_NO":"999","EPOCH":"2023-01-03T09:03:08.053920","RA_OF_ASC_NODE":"352.4673","RCS_SIZE":"LARGE","CENTER_NAME":"EARTH","FILE":"3730926","ARG_OF_PERICENTER":"30.3460","MEAN_MOTION_DDOT":"0.0000000000000","ECCENTRICITY":"0.00025250","COUNTRY_CODE":"US","APOAPSIS":"541.506","OBJECT_NAME":"STARLINK-3325","EPHEMERIS_TYPE":"0","MEAN_MOTION_DOT":"0.00001418"},{"SEMIMAJOR_AXIS":"6917.894","SITE":"AFETR","NORAD_CAT_ID":"50844","BSTAR":"0.00015092000000","MEAN_ELEMENT_THEORY":"SGP4","TLE_LINE1":"1 50844U 22001AT  23003.47654236  .00002114  00000-0  15092-3 0  9999","TIME_SYSTEM":"UTC","OBJECT_ID":"2022-001AT","OBJECT_TYPE":"PAYLOAD","INCLINATION":"53.2162","DECAY_DATE":null,"MEAN_ANOMALY":"332.8959","MEAN_MOTION":"15.08835561","REV_AT_EPOCH":"5496","GP_ID":"222114668","PERIAPSIS":"537.834","ELEMENT_SET_NO":"999","REF_FRAME":"TEME","RA_OF_ASC_NODE":"352.0128","EPOCH":"2023-01-03T11:26:13.259904","TLE_LINE2":"2 50844  53.2162 352.0128 0002783  27.2178 332.8959 15.08835561 54965","PERIOD":"95.438","LAUNCH_DATE":"2022-01-06","CLASSIFICATION_TYPE":"U","ECCENTRICITY":"0.00027830","COUNTRY_CODE":"US","APOAPSIS":"541.684","EPHEMERIS_TYPE":"0","MEAN_MOTION_DOT":"0.00002114","OBJECT_NAME":"STARLINK-3326","RCS_SIZE":"LARGE","FILE":"3730926","CENTER_NAME":"EARTH","MEAN_MOTION_DDOT":"0.0000000000000","ARG_OF_PERICENTER":"27.2178"},{"COUNTRY_CODE":"US","ECCENTRICITY":"0.00017440","OBJECT_NAME":"STARLINK-3230","EPHEMERIS_TYPE":"0","MEAN_MOTION_DOT":"0.00001859","APOAPSIS":"540.993","RCS_SIZE":"LARGE","ARG_OF_PERICENTER":"53.5362","MEAN_MOTION_DDOT":"0.0000000000000","CENTER_NAME":"EARTH","FILE":"3730926","REF_FRAME":"TEME","ELEMENT_SET_NO":"999","RA_OF_ASC_NODE":"352.1149","EPOCH":"2023-01-03T10:54:25.381152","PERIOD":"95.438","TLE_LINE2":"2 50845  53.2167 352.1149 0001744  53.5362 306.5790 15.08826659 54967","LAUNCH_DATE":"2022-01-06","CLASSIFICATION_TYPE":"U","OBJECT_TYPE":"PAYLOAD","OBJECT_ID":"2022-001AU","INCLINATION":"53.2167","DECAY_DATE":null,"MEAN_ANOMALY":"306.5790","PERIAPSIS":"538.580","GP_ID":"222113438","REV_AT_EPOCH":"5496","MEAN_MOTION":"15.08826659","SEMIMAJOR_AXIS":"6917.921","NORAD_CAT_ID":"50845","SITE":"AFETR","MEAN_ELEMENT_THEORY":"SGP4","BSTAR":"0.00013489000000","TIME_SYSTEM":"UTC","TLE_LINE1":"1 50845U 22001AU  23003.45446043  .00001859  00000-0  13489-3 0  9996"},{"SEMIMAJOR_AXIS":"6917.846","NORAD_CAT_ID":"50846","SITE":"AFETR","MEAN_ELEMENT_THEORY":"SGP4","BSTAR":"0.00060924000000","TIME_SYSTEM":"UTC","TLE_LINE1":"1 50846U 22001AV  23003.34038760  .00009424  00000-0  60924-3 0  9990","OBJECT_TYPE":"PAYLOAD","OBJECT_ID":"2022-001AV","DECAY_DATE":null,"INCLINATION":"53.2190","MEAN_ANOMALY":"330.3551","GP_ID":"222113688","PERIAPSIS":"537.961","REV_AT_EPOCH":"5494","MEAN_MOTION":"15.08851263","REF_FRAME":"TEME","ELEMENT_SET_NO":"999","EPOCH":"2023-01-03T08:10:09.488640","RA_OF_ASC_NODE":"352.6344","PERIOD":"95.437","TLE_LINE2":"2 50846  53.2190 352.6344 0002530  29.7585 330.3551 15.08851263 54949","CLASSIFICATION_TYPE":"U","LAUNCH_DATE":"2022-01-06","COUNTRY_CODE":"US","ECCENTRICITY":"0.00025300","OBJECT_NAME":"STARLINK-3308","EPHEMERIS_TYPE":"0","MEAN_MOTION_DOT":"0.00009424","APOAPSIS":"541.461","RCS_SIZE":"LARGE","ARG_OF_PERICENTER":"29.7585","MEAN_MOTION_DDOT":"0.0000000000000","CENTER_NAME":"EARTH","FILE":"3730926"},{"BSTAR":"0.00016448000000","MEAN_ELEMENT_THEORY":"SGP4","TIME_SYSTEM":"UTC","TLE_LINE1":"1 50847U 22001AW  23003.36708735  .00002331  00000-0  16448-3 0  9991","SEMIMAJOR_AXIS":"6917.874","NORAD_CAT_ID":"50847","SITE":"AFETR","MEAN_ANOMALY":"289.9345","MEAN_MOTION":"15.08841959","GP_ID":"222113938","PERIAPSIS":"538.748","REV_AT_EPOCH":"5494","OBJECT_ID":"2022-001AW","OBJECT_TYPE":"PAYLOAD","INCLINATION":"53.2182","DECAY_DATE":null,"TLE_LINE2":"2 50847  53.2182 352.5060 0001433  70.1801 289.9345 15.08841959 54948","PERIOD":"95.437","LAUNCH_DATE":"2022-01-06","CLASSIFICATION_TYPE":"U","REF_FRAME":"TEME","ELEMENT_SET_NO":"999","RA_OF_ASC_NODE":"352.5060","EPOCH":"2023-01-03T08:48:36.347040","RCS_SIZE":"LARGE","CENTER_NAME":"EARTH","FILE":"3730926","ARG_OF_PERICENTER":"70.1801","MEAN_MOTION_DDOT":"0.0000000000000","ECCENTRICITY":"0.00014330","COUNTRY_CODE":"US","APOAPSIS":"540.731","OBJECT_NAME":"STARLINK-3319","MEAN_MOTION_DOT":"0.00002331","EPHEMERIS_TYPE":"0"},{"GP_ID":"222089468","PERIAPSIS":"537.587","REV_AT_EPOCH":"5630","MEAN_MOTION":"15.08839060","MEAN_ANOMALY":"338.3746","INCLINATION":"53.2165","DECAY_DATE":null,"OBJECT_TYPE":"PAYLOAD","OBJECT_ID":"2022-001AX","TLE_LINE1":"1 50848U 22001AX  23003.66790502  .00002263  00000-0  16026-3 0  9994","TIME_SYSTEM":"UTC","MEAN_ELEMENT_THEORY":"SGP4","BSTAR":"0.00016026000000","SITE":"AFETR","NORAD_CAT_ID":"50848","SEMIMAJOR_AXIS":"6917.883","ARG_OF_PERICENTER":"21.7378","MEAN_MOTION_DDOT":"0.0000000000000","CENTER_NAME":"EARTH","FILE":"3730904","RCS_SIZE":"LARGE","MEAN_MOTION_DOT":"0.00002263","EPHEMERIS_TYPE":"0","OBJECT_NAME":"STARLINK-3315","APOAPSIS":"541.909","COUNTRY_CODE":"US","ECCENTRICITY":"0.00031240","CLASSIFICATION_TYPE":"U","LAUNCH_DATE":"2022-01-06","PERIOD":"95.438","TLE_LINE2":"2 50848  53.2165 351.1524 0003124  21.7378 338.3746 15.08839060 56306","EPOCH":"2023-01-03T16:01:46.993728","RA_OF_ASC_NODE":"351.1524","ELEMENT_SET_NO":"999","REF_FRAME":"TEME"}];
